INTELSAT 33E DEB        
1 62001U 16053T   26064.54085926  .00000000  00000+0  00000+0 0  9999
2 62001   1.1787  63.9882 0063191 335.1955  25.6852  1.00185660  5046
INTELSAT 33E DEB        
1 62003U 16053V   26062.84373354 -.00000104  00000+0  00000+0 0  9993
2 62003   1.3542  90.1162 0025362 246.6849 114.0003  1.00409080  5022
INTELSAT 33E DEB        
1 62004U 16053W   26063.87174852  .00000005  00000+0  00000+0 0  9999
2 62004   2.2969 119.7819 0208935 265.9124  92.0787  1.02630958  5141
INTELSAT 33E DEB        
1 62005U 16053X   26064.06705096 -.00000212  00000+0  00000+0 0  9993
2 62005   1.4818 100.1647 0296808 239.5453 118.2881  1.04573943  5224
OPTUS-X (ADS-01)        
1 62006U 24212A   26064.73447642 -.00000150  00000+0  00000+0 0  9995
2 62006   0.0562 274.8346 0001001  78.6290 230.8249  1.00272643  4723
FALCON 9 R/B            
1 62007U 24212B   26064.64500500 -.00000081  00000+0  11307-2 0  9997
2 62007  18.3281  95.0181 7801575  46.9891 356.2490  1.58894137  7477
GSAT-N2 (GSAT-20)       
1 62028U 24214A   26064.55705715 -.00000027  00000+0  00000+0 0  9992
2 62028   0.0822 264.9190 0001068 309.1604 217.7532  1.00273440  4856
TJS-13                  
1 62188U 24227A   26064.22011693  .00000456  00000+0  00000+0 0  9997
2 62188  63.7060  51.3306 7004150 269.4853  17.1666  2.00612603  9164
PROBA-3 CSC             
1 62256U 24233A   26062.65148569 -.00000115  00000+0  97810-2 0  9999
2 62256  59.6120 106.3485 8015901 202.4542  77.9838  1.22074677  5537
PSLV R/B                
1 62257U 24233B   26063.77986524 -.00000251  00000+0 -19034-1 0  9998
2 62257  59.7068 107.0602 8032907 202.0999  78.6950  1.20449766  5475
PROBA-3 OSC             
1 62258U 24233C   26060.19451968 -.00000142  00000+0  83784-2 0  9993
2 62258  59.6020 106.5529 8016031 202.3855  78.1997  1.22073345  5495
SXM-9                   
1 62259U 24234A   26063.34558462  .00000000  00000+0  00000+0 0  9991
2 62259   0.0135 141.4610 0003975 168.2456 251.6528  1.00268409  4528
TJS-12                  
1 62374U 24246A   26064.54697387 -.00000239  00000+0  00000+0 0  9990
2 62374   0.9077 291.7317 0002312  27.4860 187.4439  1.00275022  4528
ASTRANIS UTILITYSAT     
1 62454U 24252A   26036.36662158 -.00000141  00000+0  00000+0 0  9995
2 62454   9.0086 332.5477 7515201 238.8026  28.0513  1.00326217  4103
NUVIEW ALPHA            
1 62455U 24252B   26064.74016368 -.00000222  00000+0  00000+0 0  9995
2 62455   0.0537  10.2705 0002642 349.5240 347.0217  1.00273495  2787
AGILA                   
1 62456U 24252C   26064.73447642 -.00000189  00000+0  00000+0 0  9990
2 62456   0.0237 159.1416 0001332 193.5938 227.2733  1.00271869  4128
NUVIEW BRAVO            
1 62457U 24252D   26064.73972834 -.00000222  00000+0  00000+0 0  9995
2 62457   0.0655 166.1695 0000490 205.3890 335.0727  1.00273103  2754
