[{"OBJECT_NAME":"INTELSAT 33E DEB","OBJECT_ID":"2016-053T","EPOCH":"2026-03-05T12:58:50.240064","MEAN_MOTION":1.0018566,"ECCENTRICITY":0.0063191,"INCLINATION":1.1787,"RA_OF_ASC_NODE":63.9882,"ARG_OF_PERICENTER":335.1955,"MEAN_ANOMALY":25.6852,"EPHEMERIS_TYPE":0,"CLASSIFICATION_TYPE":"U","NORAD_CAT_ID":62001,"ELEMENT_SET_NO":999,"REV_AT_EPOCH":504,"BSTAR":0,"MEAN_MOTION_DOT":0,"MEAN_MOTION_DDOT":0},{"OBJECT_NAME":"INTELSAT 33E DEB","OBJECT_ID":"2016-053V","EPOCH":"2026-03-03T20:14:58.577856","MEAN_MOTION":1.0040908,"ECCENTRICITY":0.00253625,"INCLINATION":1.3542,"RA_OF_ASC_NODE":90.1162,"ARG_OF_PERICENTER":246.6849,"MEAN_ANOMALY":114.0003,"EPHEMERIS_TYPE":0,"CLASSIFICATION_TYPE":"U","NORAD_CAT_ID":62003,"ELEMENT_SET_NO":999,"REV_AT_EPOCH":502,"BSTAR":0,"MEAN_MOTION_DOT":-1.04e-6,"MEAN_MOTION_DDOT":0},{"OBJECT_NAME":"INTELSAT 33E DEB","OBJECT_ID":"2016-053W","EPOCH":"2026-03-04T20:55:19.072128","MEAN_MOTION":1.02630958,"ECCENTRICITY":0.0208935,"INCLINATION":2.2969,"RA_OF_ASC_NODE":119.7819,"ARG_OF_PERICENTER":265.9124,"MEAN_ANOMALY":92.0787,"EPHEMERIS_TYPE":0,"CLASSIFICATION_TYPE":"U","NORAD_CAT_ID":62004,"ELEMENT_SET_NO":999,"REV_AT_EPOCH":514,"BSTAR":0,"MEAN_MOTION_DOT":5.0e-8,"MEAN_MOTION_DDOT":0},{"OBJECT_NAME":"INTELSAT 33E DEB","OBJECT_ID":"2016-053X","EPOCH":"2026-03-05T01:36:33.202944","MEAN_MOTION":1.04573943,"ECCENTRICITY":0.0296808,"INCLINATION":1.4818,"RA_OF_ASC_NODE":100.1647,"ARG_OF_PERICENTER":239.5453,"MEAN_ANOMALY":118.2881,"EPHEMERIS_TYPE":0,"CLASSIFICATION_TYPE":"U","NORAD_CAT_ID":62005,"ELEMENT_SET_NO":999,"REV_AT_EPOCH":522,"BSTAR":0,"MEAN_MOTION_DOT":-2.12e-6,"MEAN_MOTION_DDOT":0},{"OBJECT_NAME":"OPTUS-X (ADS-01)","OBJECT_ID":"2024-212A","EPOCH":"2026-03-05T17:37:38.762688","MEAN_MOTION":1.00272643,"ECCENTRICITY":0.0001001,"INCLINATION":0.0562,"RA_OF_ASC_NODE":274.8346,"ARG_OF_PERICENTER":78.629,"MEAN_ANOMALY":230.8249,"EPHEMERIS_TYPE":0,"CLASSIFICATION_TYPE":"U","NORAD_CAT_ID":62006,"ELEMENT_SET_NO":999,"REV_AT_EPOCH":472,"BSTAR":0,"MEAN_MOTION_DOT":-1.5e-6,"MEAN_MOTION_DDOT":0},{"OBJECT_NAME":"FALCON 9 R/B","OBJECT_ID":"2024-212B","EPOCH":"2026-03-05T15:28:48.432000","MEAN_MOTION":1.58894137,"ECCENTRICITY":0.7801575,"INCLINATION":18.3281,"RA_OF_ASC_NODE":95.0181,"ARG_OF_PERICENTER":46.9891,"MEAN_ANOMALY":356.249,"EPHEMERIS_TYPE":0,"CLASSIFICATION_TYPE":"U","NORAD_CAT_ID":62007,"ELEMENT_SET_NO":999,"REV_AT_EPOCH":747,"BSTAR":0.0011307,"MEAN_MOTION_DOT":-8.1e-7,"MEAN_MOTION_DDOT":0},{"OBJECT_NAME":"GSAT-N2 (GSAT-20)","OBJECT_ID":"2024-214A","EPOCH":"2026-03-05T13:22:09.737760","MEAN_MOTION":1.0027344,"ECCENTRICITY":0.0001068,"INCLINATION":0.0822,"RA_OF_ASC_NODE":264.919,"ARG_OF_PERICENTER":309.1604,"MEAN_ANOMALY":217.7532,"EPHEMERIS_TYPE":0,"CLASSIFICATION_TYPE":"U","NORAD_CAT_ID":62028,"ELEMENT_SET_NO":999,"REV_AT_EPOCH":485,"BSTAR":0,"MEAN_MOTION_DOT":-2.7e-7,"MEAN_MOTION_DDOT":0},{"OBJECT_NAME":"TJS-13","OBJECT_ID":"2024-227A","EPOCH":"2026-03-05T05:16:58.102752","MEAN_MOTION":2.00612603,"ECCENTRICITY":0.700415,"INCLINATION":63.706,"RA_OF_ASC_NODE":51.3306,"ARG_OF_PERICENTER":269.4853,"MEAN_ANOMALY":17.1666,"EPHEMERIS_TYPE":0,"CLASSIFICATION_TYPE":"U","NORAD_CAT_ID":62188,"ELEMENT_SET_NO":999,"REV_AT_EPOCH":916,"BSTAR":0,"MEAN_MOTION_DOT":4.56e-6,"MEAN_MOTION_DDOT":0},{"OBJECT_NAME":"PROBA-3 CSC","OBJECT_ID":"2024-233A","EPOCH":"2026-03-03T15:38:08.363616","MEAN_MOTION":1.22074677,"ECCENTRICITY":0.80159011,"INCLINATION":59.612,"RA_OF_ASC_NODE":106.3485,"ARG_OF_PERICENTER":202.4542,"MEAN_ANOMALY":77.9838,"EPHEMERIS_TYPE":0,"CLASSIFICATION_TYPE":"U","NORAD_CAT_ID":62256,"ELEMENT_SET_NO":999,"REV_AT_EPOCH":553,"BSTAR":0.0097810345,"MEAN_MOTION_DOT":-1.15e-6,"MEAN_MOTION_DDOT":0},{"OBJECT_NAME":"PSLV R/B","OBJECT_ID":"2024-233B","EPOCH":"2026-03-04T18:43:00.356736","MEAN_MOTION":1.20449766,"ECCENTRICITY":0.8032907,"INCLINATION":59.7068,"RA_OF_ASC_NODE":107.0602,"ARG_OF_PERICENTER":202.0999,"MEAN_ANOMALY":78.695,"EPHEMERIS_TYPE":0,"CLASSIFICATION_TYPE":"U","NORAD_CAT_ID":62257,"ELEMENT_SET_NO":999,"REV_AT_EPOCH":547,"BSTAR":-0.019034,"MEAN_MOTION_DOT":-2.51e-6,"MEAN_MOTION_DDOT":0},{"OBJECT_NAME":"PROBA-3 OSC","OBJECT_ID":"2024-233C","EPOCH":"2026-03-01T04:40:06.500352","MEAN_MOTION":1.22073345,"ECCENTRICITY":0.8016031,"INCLINATION":59.602,"RA_OF_ASC_NODE":106.5529,"ARG_OF_PERICENTER":202.3855,"MEAN_ANOMALY":78.1997,"EPHEMERIS_TYPE":0,"CLASSIFICATION_TYPE":"U","NORAD_CAT_ID":62258,"ELEMENT_SET_NO":999,"REV_AT_EPOCH":549,"BSTAR":0.0083784442,"MEAN_MOTION_DOT":-1.42e-6,"MEAN_MOTION_DDOT":0},{"OBJECT_NAME":"SXM-9","OBJECT_ID":"2024-234A","EPOCH":"2026-03-04T08:17:38.511168","MEAN_MOTION":1.00268409,"ECCENTRICITY":0.00039758,"INCLINATION":0.0135,"RA_OF_ASC_NODE":141.461,"ARG_OF_PERICENTER":168.2456,"MEAN_ANOMALY":251.6528,"EPHEMERIS_TYPE":0,"CLASSIFICATION_TYPE":"U","NORAD_CAT_ID":62259,"ELEMENT_SET_NO":999,"REV_AT_EPOCH":452,"BSTAR":0,"MEAN_MOTION_DOT":0,"MEAN_MOTION_DDOT":0},{"OBJECT_NAME":"TJS-12","OBJECT_ID":"2024-246A","EPOCH":"2026-03-05T13:07:38.542368","MEAN_MOTION":1.00275022,"ECCENTRICITY":0.0002312,"INCLINATION":0.9077,"RA_OF_ASC_NODE":291.7317,"ARG_OF_PERICENTER":27.486,"MEAN_ANOMALY":187.4439,"EPHEMERIS_TYPE":0,"CLASSIFICATION_TYPE":"U","NORAD_CAT_ID":62374,"ELEMENT_SET_NO":999,"REV_AT_EPOCH":452,"BSTAR":0,"MEAN_MOTION_DOT":-2.39e-6,"MEAN_MOTION_DDOT":0},{"OBJECT_NAME":"ASTRANIS UTILITYSAT","OBJECT_ID":"2024-252A","EPOCH":"2026-02-05T08:47:56.104512","MEAN_MOTION":1.00326217,"ECCENTRICITY":0.7515201,"INCLINATION":9.0086,"RA_OF_ASC_NODE":332.5477,"ARG_OF_PERICENTER":238.8026,"MEAN_ANOMALY":28.0513,"EPHEMERIS_TYPE":0,"CLASSIFICATION_TYPE":"U","NORAD_CAT_ID":62454,"ELEMENT_SET_NO":999,"REV_AT_EPOCH":410,"BSTAR":0,"MEAN_MOTION_DOT":-1.41e-6,"MEAN_MOTION_DDOT":0},{"OBJECT_NAME":"NUVIEW ALPHA","OBJECT_ID":"2024-252B","EPOCH":"2026-03-05T17:45:50.141952","MEAN_MOTION":1.00273495,"ECCENTRICITY":0.0002642,"INCLINATION":0.0537,"RA_OF_ASC_NODE":10.2705,"ARG_OF_PERICENTER":349.524,"MEAN_ANOMALY":347.0217,"EPHEMERIS_TYPE":0,"CLASSIFICATION_TYPE":"U","NORAD_CAT_ID":62455,"ELEMENT_SET_NO":999,"REV_AT_EPOCH":278,"BSTAR":0,"MEAN_MOTION_DOT":-2.22e-6,"MEAN_MOTION_DDOT":0},{"OBJECT_NAME":"AGILA","OBJECT_ID":"2024-252C","EPOCH":"2026-03-05T17:37:38.762688","MEAN_MOTION":1.00271869,"ECCENTRICITY":0.0001332,"INCLINATION":0.0237,"RA_OF_ASC_NODE":159.1416,"ARG_OF_PERICENTER":193.5938,"MEAN_ANOMALY":227.2733,"EPHEMERIS_TYPE":0,"CLASSIFICATION_TYPE":"U","NORAD_CAT_ID":62456,"ELEMENT_SET_NO":999,"REV_AT_EPOCH":412,"BSTAR":0,"MEAN_MOTION_DOT":-1.89e-6,"MEAN_MOTION_DDOT":0},{"OBJECT_NAME":"NUVIEW BRAVO","OBJECT_ID":"2024-252D","EPOCH":"2026-03-05T17:45:12.528576","MEAN_MOTION":1.00273103,"ECCENTRICITY":4.9e-5,"INCLINATION":0.0655,"RA_OF_ASC_NODE":166.1695,"ARG_OF_PERICENTER":205.389,"MEAN_ANOMALY":335.0727,"EPHEMERIS_TYPE":0,"CLASSIFICATION_TYPE":"U","NORAD_CAT_ID":62457,"ELEMENT_SET_NO":999,"REV_AT_EPOCH":275,"BSTAR":0,"MEAN_MOTION_DOT":-2.22e-6,"MEAN_MOTION_DDOT":0}]
